TRANSPORTER-10 OBJECT AD
1 59125U 24043AD  26068.86032889  .00011954  00000+0  36311-3 0  9997
2 59125  97.5470 207.3753 0008984 221.4908 138.5653 15.34189901112026
STARLINK-32184          
1 60942U 24155U   26068.45869868 -.00002923  00000+0 -86684-4 0  9997
2 60942  53.1599 130.8751 0000992  67.7239 292.3867 15.30171337 86253
